{
  "norad_id": 67220,
  "name": "DISKSAT B",
  "history": [
    {
      "epoch": "2026-03-28T13:35:04.344864Z",
      "apogee_km": 544.2742872956833,
      "perigee_km": 541.0754880412032,
      "latitude_deg": 3.652904058883519e-05,
      "longitude_deg": 121.18009968634529,
      "height_km": 541.840494616306,
      "semi_major_axis_km": 6920.811887668443,
      "eccentricity": 0.0002311,
      "inclination_deg": 45.0021,
      "raan_deg": 150.9328,
      "arg_perigee_deg": 58.6953,
      "mean_anomaly_deg": 301.4149,
      "mean_motion_rev_day": 15.07881436
    },
    {
      "epoch": "2026-03-30T03:44:37.846176Z",
      "apogee_km": 544.104798929553,
      "perigee_km": 540.9920130476485,
      "latitude_deg": 1.0300608984161247e-05,
      "longitude_deg": -101.19726168516289,
      "height_km": 542.0536390981598,
      "semi_major_axis_km": 6920.685405988601,
      "eccentricity": 0.00022489,
      "inclination_deg": 45.0024,
      "raan_deg": 142.5122,
      "arg_perigee_deg": 71.6033,
      "mean_anomaly_deg": 288.5087,
      "mean_motion_rev_day": 15.07922773
    },
    {
      "epoch": "2026-03-30T13:17:00.566592Z",
      "apogee_km": 544.0572241374739,
      "perigee_km": 540.9650785434542,
      "latitude_deg": -3.848964564909153e-05,
      "longitude_deg": 113.21104257441493,
      "height_km": 542.1056463388574,
      "semi_major_axis_km": 6920.648151340463,
      "eccentricity": 0.0002234,
      "inclination_deg": 45.0021,
      "raan_deg": 140.407,
      "arg_perigee_deg": 74.9345,
      "mean_anomaly_deg": 285.1777,
      "mean_motion_rev_day": 15.07934949
    },
    {
      "epoch": "2026-03-30T19:38:35.596320Z",
      "apogee_km": 544.0385217601379,
      "perigee_km": 540.9387735325572,
      "latitude_deg": 2.1631879997458055e-05,
      "longitude_deg": 16.150560617983214,
      "height_km": 542.1438377280107,
      "semi_major_axis_km": 6920.625647646347,
      "eccentricity": 0.00022395,
      "inclination_deg": 45.0022,
      "raan_deg": 139.0036,
      "arg_perigee_deg": 77.2853,
      "mean_anomaly_deg": 282.8273,
      "mean_motion_rev_day": 15.07942304
    }
  ]
}